{"type": "FeatureCollection", "features": [ {"type": "Feature", "properties": {"norad_id": 35602, "name": "COSMOS 2251 DEB", "group": "cosmos-2251-debris", "lat": -4.984996369808756, "lon": -9.41539636413656, "alt_km": 422.65286833920345, "timestamp": "2025-12-18T19:29:52.938573+00:00", "meta": {"OBJECT_NAME": "COSMOS 2251 DEB", "OBJECT_ID": "1993-036AMV", "EPOCH": "2025-12-18T05:07:36.279840", "MEAN_MOTION": 15.35279766, "ECCENTRICITY": 0.00891938, "INCLINATION": 73.9927, "RA_OF_ASC_NODE": 170.4375, "ARG_OF_PERICENTER": 234.9985, "MEAN_ANOMALY": 242.6614, "EPHEMERIS_TYPE": 0, "CLASSIFICATION_TYPE": "U", "NORAD_CAT_ID": 35602, "ELEMENT_SET_NO": 999, "REV_AT_EPOCH": 90175, "BSTAR": 0.00048312432, "MEAN_MOTION_DOT": 0.00018873, "MEAN_MOTION_DDOT": 0}, "tle": {"line1": "1 35602U 93036AMV 25352.21361435  .00018873  00000+0  48312-3 0  9996", "line2": "2 35602  73.9927 170.4375 0089193 234.9985 242.6614 15.35279766901750"}}, "geometry": {"type": "Point", "coordinates": [-9.41539636413656, -4.984996369808756]}}, {"type": "Feature", "properties": {"norad_id": 35605, "name": "COSMOS 2251 DEB", "group": "cosmos-2251-debris", "lat": -54.80672034201998, "lon": 167.68551802519391, "alt_km": 447.1083608920171, "timestamp": "2025-12-18T19:29:52.938583+00:00", "meta": {"OBJECT_NAME": "COSMOS 2251 DEB", "OBJECT_ID": "1993-036AMY", "EPOCH": "2025-12-16T05:30:02.725344", "MEAN_MOTION": 15.35586787, "ECCENTRICITY": 0.00242235, "INCLINATION": 73.8701, "RA_OF_ASC_NODE": 329.0606, "ARG_OF_PERICENTER": 257.5437, "MEAN_ANOMALY": 102.3057, "EPHEMERIS_TYPE": 0, "CLASSIFICATION_TYPE": "U", "NORAD_CAT_ID": 35605, "ELEMENT_SET_NO": 999, "REV_AT_EPOCH": 66025, "BSTAR": 0.0050760725, "MEAN_MOTION_DOT": 0.00181517, "MEAN_MOTION_DDOT": 0}, "tle": {"line1": "1 35605U 93036AMY 25350.22919821  .00181517  00000+0  50761-2 0  9992", "line2": "2 35605  73.8701 329.0606 0024223 257.5437 102.3057 15.35586787660251"}}, "geometry": {"type": "Point", "coordinates": [167.68551802519391, -54.80672034201998]}}, {"type": "Feature", "properties": {"norad_id": 35606, "name": "COSMOS 2251 DEB", "group": "cosmos-2251-debris", "lat": -3.8454393963096862, "lon": -0.0006162110398646553, "alt_km": 1400.4861406660593, "timestamp": "2025-12-18T19:29:52.938593+00:00", "meta": {"OBJECT_NAME": "COSMOS 2251 DEB", "OBJECT_ID": "1993-036AMZ", "EPOCH": "2025-12-17T18:27:28.365120", "MEAN_MOTION": 13.41216697, "ECCENTRICITY": 0.04572108, "INCLINATION": 73.8105, "RA_OF_ASC_NODE": 2.7804, "ARG_OF_PERICENTER": 207.7717, "MEAN_ANOMALY": 149.8287, "EPHEMERIS_TYPE": 0, "CLASSIFICATION_TYPE": "U", "NORAD_CAT_ID": 35606, "ELEMENT_SET_NO": 999, "REV_AT_EPOCH": 61107, "BSTAR": 0.0003718916, "MEAN_MOTION_DOT": 3.59e-06, "MEAN_MOTION_DDOT": 0}, "tle": {"line1": "1 35606U 93036AMZ 25351.76907830  .00000359  00000+0  37189-3 0  9994", "line2": "2 35606  73.8105   2.7804 0457210 207.7717 149.8287 13.41216697611071"}}, "geometry": {"type": "Point", "coordinates": [-0.0006162110398646553, -3.8454393963096862]}}, {"type": "Feature", "properties": {"norad_id": 35611, "name": "COSMOS 2251 DEB", "group": "cosmos-2251-debris", "lat": 60.9492312562649, "lon": -43.59891601333319, "alt_km": 653.9117660186967, "timestamp": "2025-12-18T19:29:52.938603+00:00", "meta": {"OBJECT_NAME": "COSMOS 2251 DEB", "OBJECT_ID": "1993-036ANE", "EPOCH": "2025-12-17T21:47:16.724544", "MEAN_MOTION": 14.72986484, "ECCENTRICITY": 0.00214069, "INCLINATION": 74.0185, "RA_OF_ASC_NODE": 169.2246, "ARG_OF_PERICENTER": 241.9604, "MEAN_ANOMALY": 117.9404, "EPHEMERIS_TYPE": 0, "CLASSIFICATION_TYPE": "U", "NORAD_CAT_ID": 35611, "ELEMENT_SET_NO": 999, "REV_AT_EPOCH": 87366, "BSTAR": 0.0018150701, "MEAN_MOTION_DOT": 0.00011685, "MEAN_MOTION_DDOT": 0}, "tle": {"line1": "1 35611U 93036ANE 25351.90783246  .00011685  00000+0  18151-2 0  9990", "line2": "2 35611  74.0185 169.2246 0021406 241.9604 117.9404 14.72986484873661"}}, "geometry": {"type": "Point", "coordinates": [-43.59891601333319, 60.9492312562649]}}, {"type": "Feature", "properties": {"norad_id": 35614, "name": "COSMOS 2251 DEB", "group": "cosmos-2251-debris", "lat": 68.12422182431438, "lon": 89.91215340691267, "alt_km": 639.5161707273619, "timestamp": "2025-12-18T19:29:52.938613+00:00", "meta": {"OBJECT_NAME": "COSMOS 2251 DEB", "OBJECT_ID": "1993-036ANH", "EPOCH": "2025-12-18T04:17:20.029920", "MEAN_MOTION": 14.67060483, "ECCENTRICITY": 0.00753518, "INCLINATION": 73.9586, "RA_OF_ASC_NODE": 316.9148, "ARG_OF_PERICENTER": 169.9946, "MEAN_ANOMALY": 190.2746, "EPHEMERIS_TYPE": 0, "CLASSIFICATION_TYPE": "U", "NORAD_CAT_ID": 35614, "ELEMENT_SET_NO": 999, "REV_AT_EPOCH": 87809, "BSTAR": 0.00063187331, "MEAN_MOTION_DOT": 3.668e-05, "MEAN_MOTION_DDOT": 0}, "tle": {"line1": "1 35614U 93036ANH 25352.17870405  .00003668  00000+0  63187-3 0  9999", "line2": "2 35614  73.9586 316.9148 0075351 169.9946 190.2746 14.67060483878096"}}, "geometry": {"type": "Point", "coordinates": [89.91215340691267, 68.12422182431438]}}, {"type": "Feature", "properties": {"norad_id": 35645, "name": "COSMOS 2251 DEB", "group": "cosmos-2251-debris", "lat": 69.7478665085752, "lon": 127.57049699501239, "alt_km": 777.9581763341903, "timestamp": "2025-12-18T19:29:52.938623+00:00", "meta": {"OBJECT_NAME": "COSMOS 2251 DEB", "OBJECT_ID": "1993-036ANL", "EPOCH": "2025-12-18T05:51:00.261792", "MEAN_MOTION": 14.45662018, "ECCENTRICITY": 0.00697503, "INCLINATION": 73.9648, "RA_OF_ASC_NODE": 77.4223, "ARG_OF_PERICENTER": 234.5372, "MEAN_ANOMALY": 124.9263, "EPHEMERIS_TYPE": 0, "CLASSIFICATION_TYPE": "U", "NORAD_CAT_ID": 35645, "ELEMENT_SET_NO": 999, "REV_AT_EPOCH": 86851, "BSTAR": 0.0016694587, "MEAN_MOTION_DOT": 6.062e-05, "MEAN_MOTION_DDOT": 0}, "tle": {"line1": "1 35645U 93036ANL 25352.24375303  .00006062  00000+0  16695-2 0  9990", "line2": "2 35645  73.9648  77.4223 0069750 234.5372 124.9263 14.45662018868512"}}, "geometry": {"type": "Point", "coordinates": [127.57049699501239, 69.7478665085752]}}, {"type": "Feature", "properties": {"norad_id": 35646, "name": "COSMOS 2251 DEB", "group": "cosmos-2251-debris", "lat": -53.742220706388196, "lon": -110.3717700290756, "alt_km": 1046.889864003787, "timestamp": "2025-12-18T19:29:52.938633+00:00", "meta": {"OBJECT_NAME": "COSMOS 2251 DEB", "OBJECT_ID": "1993-036ANM", "EPOCH": "2025-12-17T10:13:49.217376", "MEAN_MOTION": 13.40827908, "ECCENTRICITY": 0.04565193, "INCLINATION": 73.8719, "RA_OF_ASC_NODE": 48.5924, "ARG_OF_PERICENTER": 157.9927, "MEAN_ANOMALY": 225.3714, "EPHEMERIS_TYPE": 0, "CLASSIFICATION_TYPE": "U", "NORAD_CAT_ID": 35646, "ELEMENT_SET_NO": 999, "REV_AT_EPOCH": 81921, "BSTAR": 0.00049499491, "MEAN_MOTION_DOT": 4.84e-06, "MEAN_MOTION_DDOT": 0}, "tle": {"line1": "1 35646U 93036ANM 25351.42626409  .00000484  00000+0  49499-3 0  9997", "line2": "2 35646  73.8719  48.5924 0456519 157.9927 225.3714 13.40827908819210"}}, "geometry": {"type": "Point", "coordinates": [-110.3717700290756, -53.742220706388196]}}, {"type": "Feature", "properties": {"norad_id": 35647, "name": "COSMOS 2251 DEB", "group": "cosmos-2251-debris", "lat": 67.34111391166523, "lon": 59.935413390956434, "alt_km": 736.6971125051841, "timestamp": "2025-12-18T19:29:52.938643+00:00", "meta": {"OBJECT_NAME": "COSMOS 2251 DEB", "OBJECT_ID": "1993-036ANN", "EPOCH": "2025-12-16T12:07:42.204576", "MEAN_MOTION": 14.43653976, "ECCENTRICITY": 0.00457493, "INCLINATION": 74.0235, "RA_OF_ASC_NODE": 287.5596, "ARG_OF_PERICENTER": 25.7805, "MEAN_ANOMALY": 334.5617, "EPHEMERIS_TYPE": 0, "CLASSIFICATION_TYPE": "U", "NORAD_CAT_ID": 35647, "ELEMENT_SET_NO": 999, "REV_AT_EPOCH": 67718, "BSTAR": 0.00059115508, "MEAN_MOTION_DOT": 2.005e-05, "MEAN_MOTION_DDOT": 0}, "tle": {"line1": "1 35647U 93036ANN 25350.50534959  .00002005  00000+0  59116-3 0  9992", "line2": "2 35647  74.0235 287.5596 0045749  25.7805 334.5617 14.43653976677182"}}, "geometry": {"type": "Point", "coordinates": [59.935413390956434, 67.34111391166523]}}, {"type": "Feature", "properties": {"norad_id": 35650, "name": "COSMOS 2251 DEB", "group": "cosmos-2251-debris", "lat": 66.40759391558522, "lon": 47.7772779605436, "alt_km": 600.9004254738802, "timestamp": "2025-12-18T19:29:52.938653+00:00", "meta": {"OBJECT_NAME": "COSMOS 2251 DEB", "OBJECT_ID": "1993-036ANR", "EPOCH": "2025-12-18T07:55:26.580000", "MEAN_MOTION": 14.83765086, "ECCENTRICITY": 0.00148611, "INCLINATION": 74.0451, "RA_OF_ASC_NODE": 7.8074, "ARG_OF_PERICENTER": 52.4098, "MEAN_ANOMALY": 325.0699, "EPHEMERIS_TYPE": 0, "CLASSIFICATION_TYPE": "U", "NORAD_CAT_ID": 35650, "ELEMENT_SET_NO": 999, "REV_AT_EPOCH": 87717, "BSTAR": 0.0014722854, "MEAN_MOTION_DOT": 0.000122, "MEAN_MOTION_DDOT": 0}, "tle": {"line1": "1 35650U 93036ANR 25352.33016875  .00012200  00000+0  14723-2 0  9993", "line2": "2 35650  74.0451   7.8074 0014861  52.4098 325.0699 14.83765086877178"}}, "geometry": {"type": "Point", "coordinates": [47.7772779605436, 66.40759391558522]}}, {"type": "Feature", "properties": {"norad_id": 35660, "name": "COSMOS 2251 DEB", "group": "cosmos-2251-debris", "lat": -7.747444484773371, "lon": 119.59881665610894, "alt_km": 727.7548097469817, "timestamp": "2025-12-18T19:29:52.938663+00:00", "meta": {"OBJECT_NAME": "COSMOS 2251 DEB", "OBJECT_ID": "1993-036APB", "EPOCH": "2025-12-15T02:38:46.156416", "MEAN_MOTION": 14.49937403, "ECCENTRICITY": 0.00182984, "INCLINATION": 74.0379, "RA_OF_ASC_NODE": 128.7781, "ARG_OF_PERICENTER": 277.071, "MEAN_ANOMALY": 198.1224, "EPHEMERIS_TYPE": 0, "CLASSIFICATION_TYPE": "U", "NORAD_CAT_ID": 35660, "ELEMENT_SET_NO": 999, "REV_AT_EPOCH": 65905, "BSTAR": 0.00040464315, "MEAN_MOTION_DOT": 1.541e-05, "MEAN_MOTION_DDOT": 0}, "tle": {"line1": "1 35660U 93036APB 25349.11025644  .00001541  00000+0  40464-3 0  9998", "line2": "2 35660  74.0379 128.7781 0018298 277.0710 198.1224 14.49937403659054"}}, "geometry": {"type": "Point", "coordinates": [119.59881665610894, -7.747444484773371]}}]}